COSMOS 2426 (717)       
1 29671U 06062B   19247.09357166  .00000019  00000-0  10000-3 0  9993
2 29671  65.0834 277.6236 0021203 179.5134  81.8465  2.12961903 98770
COSMOS 2433 (720)       
1 32275U 07052A   19246.69464436 -.00000037  00000-0  10000-3 0  9992
2 32275  65.8843  38.5165 0002056 197.7722 111.1494  2.13104451 92273
COSMOS 2432 (719)       
1 32276U 07052B   19247.24853843 -.00000037  00000-0  10000-3 0  9999
2 32276  65.8969  38.5825 0008585 339.9379 344.8386  2.13103729 92280
COSMOS 2434 (721)       
1 32393U 07065A   19246.90783324  .00000020  00000-0  00000+0 0  9997
2 32393  64.6887 276.2881 0002652 154.5023 205.3989  2.13103071 90980
COSMOS 2436 (723)       
1 32395U 07065C   19246.69352781  .00000019  00000-0  10000-3 0  9997
2 32395  64.6956 276.3513 0014756 350.7684 257.3934  2.13104437 90910
COSMOS 2456 (730)       
1 36111U 09070A   19246.43284824  .00000006  00000-0  00000-0 0  9991
2 36111  64.2035 155.9491 0004730 315.7647 212.9295  2.13103077 75641
COSMOS 2457 (733)       
1 36112U 09070B   19247.07572443 -.00000002  00000-0  00000+0 0  9996
2 36112  64.1848 155.8289 0005048 173.3441 253.2197  2.13101632 75666
COSMOS 2459 (731)       
1 36400U 10007A   19247.21737384 -.00000038  00000-0  10000-3 0  9995
2 36400  65.7872  37.5063 0024376 354.9544 210.3577  2.13102173 74017
COSMOS 2461 (735)       
1 36401U 10007B   19246.64829825 -.00000039  00000-0  10000-3 0  9995
2 36401  65.7818  37.4964 0008419  78.3661 320.9061  2.13102108 74007
COSMOS 2460 (732)       
1 36402U 10007C   19246.60766630 -.00000039  00000-0  10000-3 0  9996
2 36402  65.7718  37.4613 0002458 118.0817 289.7091  2.13101500 74000
COSMOS 2464 (736)       
1 37139U 10041C   19246.72061308  .00000019  00000-0  00000-0 0  9998
2 37139  64.2899 275.8787 0023460   6.5203  75.4579  2.13100610 70073
COSMOS 2474 (742)       
1 37829U 11055A   19247.02680745 -.00000001  00000-0  00000+0 0  9997
2 37829  64.5258 156.8332 0009222 248.0291 232.3892  2.13101929 61655
COSMOS 2476 (744)       
1 37867U 11064A   19246.60771781  .00000005  00000-0  00000-0 0  9997
2 37867  64.5063 156.8970 0019429 240.8497 324.2304  2.13102022 60997
COSMOS 2477 (745)       
1 37868U 11064B   19247.42769156 -.00000006  00000-0  00000+0 0  9993
2 37868  64.5136 156.9229 0017193 241.9984  50.7809  2.13101936 60967
COSMOS 2475 (743)       
1 37869U 11064C   19247.02190586 -.00000001  00000-0  00000+0 0  9990
2 37869  64.5209 156.9353 0021187 264.6204  34.0201  2.13102276 60961
COSMOS 2485 (747)       
1 39155U 13019A   19247.02536829 -.00000000  00000-0  00000+0 0  9995
2 39155  64.6744 157.0896 0019851 236.3376 333.8506  2.13102096 49472
COSMOS 2492 (754)       
1 39620U 14012A   19247.17827231 -.00000039  00000-0  10000-3 0  9999
2 39620  65.6618  37.2636 0011718 331.7039  30.8725  2.13103335 42434
COSMOS 2500 (755)       
1 40001U 14032A   19246.90880527 -.00000039  00000-0  00000-0 0  9999
2 40001  65.6019  37.2088 0006730 185.3175 191.7880  2.13102613 40645
COSMOS 2501 (702K)      
1 40315U 14075A   19247.23743890  .00000019  00000-0  00000+0 0  9998
2 40315  64.0098 276.9124 0017811 210.3089 216.2218  2.13098766 37053
COSMOS 2514 (751)       
1 41330U 16008A   19246.74830309 -.00000040  00000-0  00000+0 0  9996
2 41330  65.4073  37.1600 0009850 202.3628 233.4514  2.13103114 27805
COSMOS 2516 (753)       
1 41554U 16032A   19247.03938260  .00000018  00000-0  00000+0 0  9993
2 41554  64.2309 276.9108 0014959 220.8976 328.7972  2.13101821 25419
COSMOS 2522 (752)       
1 42939U 17055A   19246.82753612  .00000018  00000-0  00000+0 0  9999
2 42939  64.4641 277.0118 0009871 243.6892   9.9863  2.13102017 15164
COSMOS 2527 (756)       
1 43508U 18053A   19247.55414549 -.00000008  00000-0  00000+0 0  9995
2 43508  64.8380 156.8603 0007701 236.7428 245.7339  2.13102697  9471
COSMOS 2529 (757)       
1 43687U 18086A   19247.30561087  .00000020  00000-0  00000+0 0  9995
2 43687  64.6749 277.0384 0012033 264.2078 311.9265  2.13102086  6483
COSMOS 2534 (758)       
1 44299U 19030A   19247.44710132  .00000021  00000-0  00000+0 0  9998
2 44299  64.7447 276.8234 0014751 281.7793 178.1006  2.13102020  2139
